QIANFAN-52              
1 62253U 24232S   26061.94038780  .00000063  00000+0  79392-4 0  9997
2 62253  89.0048  33.0105 0014344 328.0000  32.0278 13.51000409 78774
QIANFAN-53              
1 62254U 24232T   26061.91978917  .00000073  00000+0  95078-4 0  9990
2 62254  89.0055  33.1231 0013273 329.8531  30.1855 13.51003206 78736
QIANFAN-54              
1 62255U 24232U   26061.96096530  .00000065  00000+0  82614-4 0  9991
2 62255  89.0047  32.7904 0003281  43.1775 316.9633 13.51002566110244
QIANFAN-55              
1 62785U 25016A   26061.91293829  .00000057  00000+0  68798-4 0  9993
2 62785  88.9695  94.9168 0019354 114.8230 245.4936 13.50996061 58010
QIANFAN-56              
1 62786U 25016B   26061.92931388  .00000085  00000+0  11197-3 0  9995
2 62786  88.9668  94.7298 0017987 116.7455 243.5539 13.50998041 58066
QIANFAN-57              
1 62787U 25016C   26061.96229055  .00000074  00000+0  95640-4 0  9995
2 62787  88.9699  94.9048 0001357  96.0604 264.0701 13.50996890 58032
QIANFAN-58              
1 62788U 25016D   26061.93342699  .00000070  00000+0  89572-4 0  9996
2 62788  88.9669  94.7147 0015962 109.7689 250.5185 13.50998459 58073
QIANFAN-59              
1 62789U 25016E   26061.88419500  .00000065  00000+0  81982-4 0  9998
2 62789  88.9692  94.8126 0016293 113.2508 247.0361 13.50994366 58065
QIANFAN-60              
1 62790U 25016F   26061.99118384  .00000056  00000+0  68120-4 0  9997
2 62790  88.9673  94.7576 0017876 110.0336 250.2742 13.50992364 58061
QIANFAN-61              
1 62791U 25016G   26061.95004265  .00000056  00000+0  68006-4 0  9999
2 62791  88.9741  94.9795 0016804 109.4569 250.8400 13.50993675 58077
QIANFAN-62              
1 62792U 25016H   26061.95409266  .00000055  00000+0  66650-4 0  9992
2 62792  88.9687  94.8040 0018186 109.9108 250.4005 13.50996376 58065
QIANFAN-63              
1 62793U 25016J   26061.90474787  .00000070  00000+0  89128-4 0  9990
2 62793  88.9694  94.7661 0018204 114.8195 245.4852 13.50994996 58097
QIANFAN-64              
1 62794U 25016K   26061.94593216  .00000049  00000+0  56781-4 0  9999
2 62794  88.9681  94.7250 0016190 108.2432 252.0483 13.50992935 58096
QIANFAN-65              
1 62795U 25016L   26061.94173721  .00000066  00000+0  83041-4 0  9993
2 62795  88.9677  94.7486 0016031 109.7258 250.5624 13.51008572 58073
QIANFAN-66              
1 62796U 25016M   26061.89645708  .00000082  00000+0  10747-3 0  9997
2 62796  88.9697  94.7392 0017160 106.1598 254.1444 13.50996731 58111
QIANFAN-67              
1 62797U 25016N   26061.90051354  .00000068  00000+0  85756-4 0  9995
2 62797  88.9687  94.7565 0017085 112.2246 248.0720 13.50995053 58088
QIANFAN-68              
1 62798U 25016P   26061.89244491  .00000082  00000+0  10730-3 0  9995
2 62798  88.9691  94.8055 0017145 110.6592 249.6399 13.51005033 58060
