[{"OBJECT_NAME":"QIANFAN-52","OBJECT_ID":"2024-232S","EPOCH":"2026-03-02T22:34:09.505920","MEAN_MOTION":13.51000409,"ECCENTRICITY":0.00143443,"INCLINATION":89.0048,"RA_OF_ASC_NODE":33.0105,"ARG_OF_PERICENTER":328,"MEAN_ANOMALY":32.0278,"EPHEMERIS_TYPE":0,"CLASSIFICATION_TYPE":"U","NORAD_CAT_ID":62253,"ELEMENT_SET_NO":999,"REV_AT_EPOCH":7877,"BSTAR":7.9392333e-5,"MEAN_MOTION_DOT":6.3e-7,"MEAN_MOTION_DDOT":0},{"OBJECT_NAME":"QIANFAN-53","OBJECT_ID":"2024-232T","EPOCH":"2026-03-02T22:04:29.784288","MEAN_MOTION":13.51003206,"ECCENTRICITY":0.00132735,"INCLINATION":89.0055,"RA_OF_ASC_NODE":33.1231,"ARG_OF_PERICENTER":329.8531,"MEAN_ANOMALY":30.1855,"EPHEMERIS_TYPE":0,"CLASSIFICATION_TYPE":"U","NORAD_CAT_ID":62254,"ELEMENT_SET_NO":999,"REV_AT_EPOCH":7873,"BSTAR":9.5078408e-5,"MEAN_MOTION_DOT":7.3e-7,"MEAN_MOTION_DDOT":0},{"OBJECT_NAME":"QIANFAN-54","OBJECT_ID":"2024-232U","EPOCH":"2026-03-02T23:03:47.401920","MEAN_MOTION":13.51002566,"ECCENTRICITY":0.00032814,"INCLINATION":89.0047,"RA_OF_ASC_NODE":32.7904,"ARG_OF_PERICENTER":43.1775,"MEAN_ANOMALY":316.9633,"EPHEMERIS_TYPE":0,"CLASSIFICATION_TYPE":"U","NORAD_CAT_ID":62255,"ELEMENT_SET_NO":999,"REV_AT_EPOCH":11024,"BSTAR":8.2614208e-5,"MEAN_MOTION_DOT":6.5e-7,"MEAN_MOTION_DDOT":0},{"OBJECT_NAME":"QIANFAN-55","OBJECT_ID":"2025-016A","EPOCH":"2026-03-02T21:54:37.868256","MEAN_MOTION":13.50996061,"ECCENTRICITY":0.00193543,"INCLINATION":88.9695,"RA_OF_ASC_NODE":94.9168,"ARG_OF_PERICENTER":114.823,"MEAN_ANOMALY":245.4936,"EPHEMERIS_TYPE":0,"CLASSIFICATION_TYPE":"U","NORAD_CAT_ID":62785,"ELEMENT_SET_NO":999,"REV_AT_EPOCH":5801,"BSTAR":6.8798349e-5,"MEAN_MOTION_DOT":5.7e-7,"MEAN_MOTION_DDOT":0},{"OBJECT_NAME":"QIANFAN-56","OBJECT_ID":"2025-016B","EPOCH":"2026-03-02T22:18:12.719232","MEAN_MOTION":13.50998041,"ECCENTRICITY":0.00179873,"INCLINATION":88.9668,"RA_OF_ASC_NODE":94.7298,"ARG_OF_PERICENTER":116.7455,"MEAN_ANOMALY":243.5539,"EPHEMERIS_TYPE":0,"CLASSIFICATION_TYPE":"U","NORAD_CAT_ID":62786,"ELEMENT_SET_NO":999,"REV_AT_EPOCH":5806,"BSTAR":0.00011196748,"MEAN_MOTION_DOT":8.5e-7,"MEAN_MOTION_DDOT":0},{"OBJECT_NAME":"QIANFAN-57","OBJECT_ID":"2025-016C","EPOCH":"2026-03-02T23:05:41.903520","MEAN_MOTION":13.5099689,"ECCENTRICITY":0.00013573,"INCLINATION":88.9699,"RA_OF_ASC_NODE":94.9048,"ARG_OF_PERICENTER":96.0604,"MEAN_ANOMALY":264.0701,"EPHEMERIS_TYPE":0,"CLASSIFICATION_TYPE":"U","NORAD_CAT_ID":62787,"ELEMENT_SET_NO":999,"REV_AT_EPOCH":5803,"BSTAR":9.5639852e-5,"MEAN_MOTION_DOT":7.4e-7,"MEAN_MOTION_DDOT":0},{"OBJECT_NAME":"QIANFAN-58","OBJECT_ID":"2025-016D","EPOCH":"2026-03-02T22:24:08.091936","MEAN_MOTION":13.50998459,"ECCENTRICITY":0.00159629,"INCLINATION":88.9669,"RA_OF_ASC_NODE":94.7147,"ARG_OF_PERICENTER":109.7689,"MEAN_ANOMALY":250.5185,"EPHEMERIS_TYPE":0,"CLASSIFICATION_TYPE":"U","NORAD_CAT_ID":62788,"ELEMENT_SET_NO":999,"REV_AT_EPOCH":5807,"BSTAR":8.9572323e-5,"MEAN_MOTION_DOT":7.0e-7,"MEAN_MOTION_DDOT":0},{"OBJECT_NAME":"QIANFAN-59","OBJECT_ID":"2025-016E","EPOCH":"2026-03-02T21:13:14.448000","MEAN_MOTION":13.50994366,"ECCENTRICITY":0.00162935,"INCLINATION":88.9692,"RA_OF_ASC_NODE":94.8126,"ARG_OF_PERICENTER":113.2508,"MEAN_ANOMALY":247.0361,"EPHEMERIS_TYPE":0,"CLASSIFICATION_TYPE":"U","NORAD_CAT_ID":62789,"ELEMENT_SET_NO":999,"REV_AT_EPOCH":5806,"BSTAR":8.1981567e-5,"MEAN_MOTION_DOT":6.5e-7,"MEAN_MOTION_DDOT":0},{"OBJECT_NAME":"QIANFAN-60","OBJECT_ID":"2025-016F","EPOCH":"2026-03-02T23:47:18.283776","MEAN_MOTION":13.50992364,"ECCENTRICITY":0.0017876,"INCLINATION":88.9673,"RA_OF_ASC_NODE":94.7576,"ARG_OF_PERICENTER":110.0336,"MEAN_ANOMALY":250.2742,"EPHEMERIS_TYPE":0,"CLASSIFICATION_TYPE":"U","NORAD_CAT_ID":62790,"ELEMENT_SET_NO":999,"REV_AT_EPOCH":5806,"BSTAR":6.8119964e-5,"MEAN_MOTION_DOT":5.6e-7,"MEAN_MOTION_DDOT":0},{"OBJECT_NAME":"QIANFAN-61","OBJECT_ID":"2025-016G","EPOCH":"2026-03-02T22:48:03.684960","MEAN_MOTION":13.50993675,"ECCENTRICITY":0.00168041,"INCLINATION":88.9741,"RA_OF_ASC_NODE":94.9795,"ARG_OF_PERICENTER":109.4569,"MEAN_ANOMALY":250.84,"EPHEMERIS_TYPE":0,"CLASSIFICATION_TYPE":"U","NORAD_CAT_ID":62791,"ELEMENT_SET_NO":999,"REV_AT_EPOCH":5807,"BSTAR":6.8006438e-5,"MEAN_MOTION_DOT":5.6e-7,"MEAN_MOTION_DDOT":0},{"OBJECT_NAME":"QIANFAN-62","OBJECT_ID":"2025-016H","EPOCH":"2026-03-02T22:53:53.605824","MEAN_MOTION":13.50996376,"ECCENTRICITY":0.00181863,"INCLINATION":88.9687,"RA_OF_ASC_NODE":94.804,"ARG_OF_PERICENTER":109.9108,"MEAN_ANOMALY":250.4005,"EPHEMERIS_TYPE":0,"CLASSIFICATION_TYPE":"U","NORAD_CAT_ID":62792,"ELEMENT_SET_NO":999,"REV_AT_EPOCH":5806,"BSTAR":6.6650104e-5,"MEAN_MOTION_DOT":5.5e-7,"MEAN_MOTION_DDOT":0},{"OBJECT_NAME":"QIANFAN-63","OBJECT_ID":"2025-016J","EPOCH":"2026-03-02T21:42:50.215968","MEAN_MOTION":13.50994996,"ECCENTRICITY":0.0018204,"INCLINATION":88.9694,"RA_OF_ASC_NODE":94.7661,"ARG_OF_PERICENTER":114.8195,"MEAN_ANOMALY":245.4852,"EPHEMERIS_TYPE":0,"CLASSIFICATION_TYPE":"U","NORAD_CAT_ID":62793,"ELEMENT_SET_NO":999,"REV_AT_EPOCH":5809,"BSTAR":8.9128059e-5,"MEAN_MOTION_DOT":7.0e-7,"MEAN_MOTION_DDOT":0},{"OBJECT_NAME":"QIANFAN-64","OBJECT_ID":"2025-016K","EPOCH":"2026-03-02T22:42:08.538624","MEAN_MOTION":13.50992935,"ECCENTRICITY":0.00161907,"INCLINATION":88.9681,"RA_OF_ASC_NODE":94.725,"ARG_OF_PERICENTER":108.2432,"MEAN_ANOMALY":252.0483,"EPHEMERIS_TYPE":0,"CLASSIFICATION_TYPE":"U","NORAD_CAT_ID":62794,"ELEMENT_SET_NO":999,"REV_AT_EPOCH":5809,"BSTAR":5.6781242e-5,"MEAN_MOTION_DOT":4.9e-7,"MEAN_MOTION_DDOT":0},{"OBJECT_NAME":"QIANFAN-65","OBJECT_ID":"2025-016L","EPOCH":"2026-03-02T22:36:06.094944","MEAN_MOTION":13.51008572,"ECCENTRICITY":0.00160315,"INCLINATION":88.9677,"RA_OF_ASC_NODE":94.7486,"ARG_OF_PERICENTER":109.7258,"MEAN_ANOMALY":250.5624,"EPHEMERIS_TYPE":0,"CLASSIFICATION_TYPE":"U","NORAD_CAT_ID":62795,"ELEMENT_SET_NO":999,"REV_AT_EPOCH":5807,"BSTAR":8.3041316e-5,"MEAN_MOTION_DOT":6.6e-7,"MEAN_MOTION_DDOT":0},{"OBJECT_NAME":"QIANFAN-66","OBJECT_ID":"2025-016M","EPOCH":"2026-03-02T21:30:53.891712","MEAN_MOTION":13.50996731,"ECCENTRICITY":0.00171604,"INCLINATION":88.9697,"RA_OF_ASC_NODE":94.7392,"ARG_OF_PERICENTER":106.1598,"MEAN_ANOMALY":254.1444,"EPHEMERIS_TYPE":0,"CLASSIFICATION_TYPE":"U","NORAD_CAT_ID":62796,"ELEMENT_SET_NO":999,"REV_AT_EPOCH":5811,"BSTAR":0.00010746718,"MEAN_MOTION_DOT":8.2e-7,"MEAN_MOTION_DDOT":0},{"OBJECT_NAME":"QIANFAN-67","OBJECT_ID":"2025-016N","EPOCH":"2026-03-02T21:36:44.369856","MEAN_MOTION":13.50995053,"ECCENTRICITY":0.00170853,"INCLINATION":88.9687,"RA_OF_ASC_NODE":94.7565,"ARG_OF_PERICENTER":112.2246,"MEAN_ANOMALY":248.072,"EPHEMERIS_TYPE":0,"CLASSIFICATION_TYPE":"U","NORAD_CAT_ID":62797,"ELEMENT_SET_NO":999,"REV_AT_EPOCH":5808,"BSTAR":8.5755894e-5,"MEAN_MOTION_DOT":6.8e-7,"MEAN_MOTION_DDOT":0},{"OBJECT_NAME":"QIANFAN-68","OBJECT_ID":"2025-016P","EPOCH":"2026-03-02T21:25:07.240224","MEAN_MOTION":13.51005033,"ECCENTRICITY":0.00171459,"INCLINATION":88.9691,"RA_OF_ASC_NODE":94.8055,"ARG_OF_PERICENTER":110.6592,"MEAN_ANOMALY":249.6399,"EPHEMERIS_TYPE":0,"CLASSIFICATION_TYPE":"U","NORAD_CAT_ID":62798,"ELEMENT_SET_NO":999,"REV_AT_EPOCH":5806,"BSTAR":0.00010729987,"MEAN_MOTION_DOT":8.2e-7,"MEAN_MOTION_DDOT":0}]
